STARLINK-30907          
1 58352U 23177B   26176.79575359  .00000907  00000+0  42470-4 0  9991
2 58352  43.0027  99.8315 0001301 265.0962  94.9741 15.27582887144850
STARLINK-30890          
1 58362U 23177M   26176.80989233  .00000102  00000+0  13229-4 0  9991
2 58362  43.0018  99.9456 0000938 264.9035  95.1709 15.27577924144710
STARLINK-30891          
1 58367U 23177S   26176.83173213  .00000499  00000+0  27661-4 0  9996
2 58367  43.0020 100.1082 0000773 273.5986  86.4777 15.27580747144700
STARLINK-30888          
1 58370U 23177V   26176.85857095  .00000322  00000+0  21236-4 0  9996
2 58370  43.0037  99.4394 0001546 265.9021  94.1653 15.27579531144788
STARLINK-35419          
1 66559U 25268C   26176.47832584  .00032205  00000+0  11736-2 0  9998
2 66559  43.0007  98.4147 0001121 271.7774  88.2949 15.27611173 34449
STARLINK-36072          
1 66856U 25281J   26175.48263713  .00012216  00000+0  45223-3 0  9994
2 66856  43.0011 100.7508 0002124 277.0384  83.0226 15.27613764 32517
