{
  "schema": "int-temerity-real-tle-snapshot/v1",
  "source": "celestrak",
  "group": "STARLINK",
  "format": "celestrak-gp-json",
  "source_url": "https://celestrak.org/NORAD/elements/gp.php?NAME=STARLINK&FORMAT=JSON",
  "downloaded_at": "2026-06-26T09:52:00.103Z",
  "generated_at": "2026-06-26T09:52:00.244Z",
  "fingerprint": "ba85ff7c",
  "shell_id": "starlink-real-43deg-490km",
  "catalog_count": 10658,
  "shell_count": 3264,
  "selected_count": 64,
  "mean_altitude_km": 490.15,
  "mean_inclination_deg": 43.002,
  "mean_mean_motion_rev_per_day": 15.27590899,
  "layout": {
    "planes": 8,
    "satellites_per_plane": 8,
    "selection_strategy": "largest-shell-raan-clusters-even-slot-sampling",
    "raan_cluster_threshold_deg": 1.5
  },
  "satellites": [
    {
      "satellite_id": "P04-S01",
      "norad_id": 66856,
      "satellite_name": "STARLINK-36072",
      "cospar_id": "2025-281J",
      "shell_id": "starlink-real-43deg-490km",
      "plane_id": 3,
      "slot_id": 0,
      "epoch": "2026-06-24T11:34:59.848032",
      "inclination": 43.0011,
      "raan": 100.75080000000003,
      "eccentricity": 0.00021248,
      "argument_of_perigee": 277.0384,
      "mean_anomaly": 83.02260000000001,
      "mean_motion": 15.27613764,
      "bstar": 0.00045223176,
      "status": "active",
      "raw_omm": {
        "OBJECT_NAME": "STARLINK-36072",
        "OBJECT_ID": "2025-281J",
        "EPOCH": "2026-06-24T11:34:59.848032",
        "MEAN_MOTION": 15.27613764,
        "ECCENTRICITY": 0.00021248,
        "INCLINATION": 43.0011,
        "RA_OF_ASC_NODE": 100.7508,
        "ARG_OF_PERICENTER": 277.0384,
        "MEAN_ANOMALY": 83.0226,
        "EPHEMERIS_TYPE": 0,
        "CLASSIFICATION_TYPE": "U",
        "NORAD_CAT_ID": 66856,
        "ELEMENT_SET_NO": 999,
        "REV_AT_EPOCH": 3251,
        "BSTAR": 0.00045223176,
        "MEAN_MOTION_DOT": 0.00012216,
        "MEAN_MOTION_DDOT": 0
      },
      "source": "celestrak",
      "source_url": "https://celestrak.org/NORAD/elements/gp.php?NAME=STARLINK&FORMAT=JSON",
      "catalog_fingerprint": "ba85ff7c"
    },
    {
      "satellite_id": "P04-S02",
      "norad_id": 58370,
      "satellite_name": "STARLINK-30888",
      "cospar_id": "2023-177V",
      "shell_id": "starlink-real-43deg-490km",
      "plane_id": 3,
      "slot_id": 1,
      "epoch": "2026-06-25T20:36:20.530080",
      "inclination": 43.0037,
      "raan": 99.43939999999998,
      "eccentricity": 0.0001546,
      "argument_of_perigee": 265.9021,
      "mean_anomaly": 94.1653,
      "mean_motion": 15.27579531,
      "bstar": 0.000021236,
      "status": "active",
      "raw_omm": {
        "OBJECT_NAME": "STARLINK-30888",
        "OBJECT_ID": "2023-177V",
        "EPOCH": "2026-06-25T20:36:20.530080",
        "MEAN_MOTION": 15.27579531,
        "ECCENTRICITY": 0.0001546,
        "INCLINATION": 43.0037,
        "RA_OF_ASC_NODE": 99.4394,
        "ARG_OF_PERICENTER": 265.9021,
        "MEAN_ANOMALY": 94.1653,
        "EPHEMERIS_TYPE": 0,
        "CLASSIFICATION_TYPE": "U",
        "NORAD_CAT_ID": 58370,
        "ELEMENT_SET_NO": 999,
        "REV_AT_EPOCH": 14478,
        "BSTAR": 0.000021236,
        "MEAN_MOTION_DOT": 0.00000322,
        "MEAN_MOTION_DDOT": 0
      },
      "source": "celestrak",
      "source_url": "https://celestrak.org/NORAD/elements/gp.php?NAME=STARLINK&FORMAT=JSON",
      "catalog_fingerprint": "ba85ff7c"
    },
    {
      "satellite_id": "P04-S03",
      "norad_id": 58352,
      "satellite_name": "STARLINK-30907",
      "cospar_id": "2023-177B",
      "shell_id": "starlink-real-43deg-490km",
      "plane_id": 3,
      "slot_id": 2,
      "epoch": "2026-06-25T19:05:53.110176",
      "inclination": 43.0027,
      "raan": 99.8315,
      "eccentricity": 0.0001301,
      "argument_of_perigee": 265.09619999999995,
      "mean_anomaly": 94.97410000000002,
      "mean_motion": 15.27582887,
      "bstar": 0.00004247,
      "status": "active",
      "raw_omm": {
        "OBJECT_NAME": "STARLINK-30907",
        "OBJECT_ID": "2023-177B",
        "EPOCH": "2026-06-25T19:05:53.110176",
        "MEAN_MOTION": 15.27582887,
        "ECCENTRICITY": 0.0001301,
        "INCLINATION": 43.0027,
        "RA_OF_ASC_NODE": 99.8315,
        "ARG_OF_PERICENTER": 265.0962,
        "MEAN_ANOMALY": 94.9741,
        "EPHEMERIS_TYPE": 0,
        "CLASSIFICATION_TYPE": "U",
        "NORAD_CAT_ID": 58352,
        "ELEMENT_SET_NO": 999,
        "REV_AT_EPOCH": 14485,
        "BSTAR": 0.00004247,
        "MEAN_MOTION_DOT": 0.00000907,
        "MEAN_MOTION_DDOT": 0
      },
      "source": "celestrak",
      "source_url": "https://celestrak.org/NORAD/elements/gp.php?NAME=STARLINK&FORMAT=JSON",
      "catalog_fingerprint": "ba85ff7c"
    },
    {
      "satellite_id": "P04-S04",
      "norad_id": 66559,
      "satellite_name": "STARLINK-35419",
      "cospar_id": "2025-268C",
      "shell_id": "starlink-real-43deg-490km",
      "plane_id": 3,
      "slot_id": 3,
      "epoch": "2026-06-25T11:28:47.352576",
      "inclination": 43.0007,
      "raan": 98.41469999999998,
      "eccentricity": 0.0001121,
      "argument_of_perigee": 271.77739999999994,
      "mean_anomaly": 88.29489999999998,
      "mean_motion": 15.27611173,
      "bstar": 0.0011736,
      "status": "active",
      "raw_omm": {
        "OBJECT_NAME": "STARLINK-35419",
        "OBJECT_ID": "2025-268C",
        "EPOCH": "2026-06-25T11:28:47.352576",
        "MEAN_MOTION": 15.27611173,
        "ECCENTRICITY": 0.0001121,
        "INCLINATION": 43.0007,
        "RA_OF_ASC_NODE": 98.4147,
        "ARG_OF_PERICENTER": 271.7774,
        "MEAN_ANOMALY": 88.2949,
        "EPHEMERIS_TYPE": 0,
        "CLASSIFICATION_TYPE": "U",
        "NORAD_CAT_ID": 66559,
        "ELEMENT_SET_NO": 999,
        "REV_AT_EPOCH": 3444,
        "BSTAR": 0.0011736,
        "MEAN_MOTION_DOT": 0.00032205,
        "MEAN_MOTION_DDOT": 0
      },
      "source": "celestrak",
      "source_url": "https://celestrak.org/NORAD/elements/gp.php?NAME=STARLINK&FORMAT=JSON",
      "catalog_fingerprint": "ba85ff7c"
    },
    {
      "satellite_id": "P04-S05",
      "norad_id": 58362,
      "satellite_name": "STARLINK-30890",
      "cospar_id": "2023-177M",
      "shell_id": "starlink-real-43deg-490km",
      "plane_id": 3,
      "slot_id": 4,
      "epoch": "2026-06-25T19:26:14.697312",
      "inclination": 43.0018,
      "raan": 99.94560000000001,
      "eccentricity": 0.0000938,
      "argument_of_perigee": 264.9035,
      "mean_anomaly": 95.17090000000002,
      "mean_motion": 15.27577924,
      "bstar": 0.000013229,
      "status": "active",
      "raw_omm": {
        "OBJECT_NAME": "STARLINK-30890",
        "OBJECT_ID": "2023-177M",
        "EPOCH": "2026-06-25T19:26:14.697312",
        "MEAN_MOTION": 15.27577924,
        "ECCENTRICITY": 0.0000938,
        "INCLINATION": 43.0018,
        "RA_OF_ASC_NODE": 99.9456,
        "ARG_OF_PERICENTER": 264.9035,
        "MEAN_ANOMALY": 95.1709,
        "EPHEMERIS_TYPE": 0,
        "CLASSIFICATION_TYPE": "U",
        "NORAD_CAT_ID": 58362,
        "ELEMENT_SET_NO": 999,
        "REV_AT_EPOCH": 14471,
        "BSTAR": 0.000013229,
        "MEAN_MOTION_DOT": 0.00000102,
        "MEAN_MOTION_DDOT": 0
      },
      "source": "celestrak",
      "source_url": "https://celestrak.org/NORAD/elements/gp.php?NAME=STARLINK&FORMAT=JSON",
      "catalog_fingerprint": "ba85ff7c"
    },
    {
      "satellite_id": "P04-S06",
      "norad_id": 58367,
      "satellite_name": "STARLINK-30891",
      "cospar_id": "2023-177S",
      "shell_id": "starlink-real-43deg-490km",
      "plane_id": 3,
      "slot_id": 5,
      "epoch": "2026-06-25T19:57:41.656032",
      "inclination": 43.002,
      "raan": 100.10820000000001,
      "eccentricity": 0.0000773,
      "argument_of_perigee": 273.59860000000003,
      "mean_anomaly": 86.47770000000003,
      "mean_motion": 15.27580747,
      "bstar": 0.000027661,
      "status": "active",
      "raw_omm": {
        "OBJECT_NAME": "STARLINK-30891",
        "OBJECT_ID": "2023-177S",
        "EPOCH": "2026-06-25T19:57:41.656032",
        "MEAN_MOTION": 15.27580747,
        "ECCENTRICITY": 0.0000773,
        "INCLINATION": 43.002,
        "RA_OF_ASC_NODE": 100.1082,
        "ARG_OF_PERICENTER": 273.5986,
        "MEAN_ANOMALY": 86.4777,
        "EPHEMERIS_TYPE": 0,
        "CLASSIFICATION_TYPE": "U",
        "NORAD_CAT_ID": 58367,
        "ELEMENT_SET_NO": 999,
        "REV_AT_EPOCH": 14470,
        "BSTAR": 0.000027661,
        "MEAN_MOTION_DOT": 0.00000499,
        "MEAN_MOTION_DDOT": 0
      },
      "source": "celestrak",
      "source_url": "https://celestrak.org/NORAD/elements/gp.php?NAME=STARLINK&FORMAT=JSON",
      "catalog_fingerprint": "ba85ff7c"
    }
  ]
}